[Satellite]
VERSION=1.1
NAME=AMAZONAS
NICKNAME=AMAZONAS
TLE1=1 28393U 04031A   15055.18022939 -.00000311  00000-0  00000+0 0  9998
TLE2=2 28393   0.0564 119.4967 0001795 225.0496 178.6434  1.00270643 38703
